BEIDOU 3 (C01)          
1 36287U 10001A   21159.90219990 -.00000270  00000-0  00000-0 0  9995
2 36287   1.8619  46.1472 0005493  78.5081 238.0824  1.00271112 41767
BEIDOU 5 (C06)          
1 36828U 10036A   21159.42826940 -.00000007  00000-0  00000-0 0  9998
2 36828  54.1752 179.6760 0113694 235.4225 114.7685  1.00263581 39815
BEIDOU 6 (C04)          
1 37210U 10057A   21159.83436733 -.00000101  00000-0  00000+0 0  9993
2 37210   0.8283  46.6603 0003498 119.6876 191.4138  1.00271452 38889
BEIDOU 7 (C07)          
1 37256U 10068A   21159.10532314 -.00000240  00000-0  00000-0 0  9992
2 37256  50.8782 294.1110 0084875 215.3139 263.2578  1.00256894 38390
BEIDOU 8 (C08)          
1 37384U 11013A   21159.91927006 -.00000220  00000-0  00000-0 0  9998
2 37384  59.7661  57.9910 0052054 205.9814  81.6884  1.00255960 37279
BEIDOU 9 (C09)          
1 37763U 11038A   21159.87490422  .00000015  00000-0  00000-0 0  9999
2 37763  54.4624 182.1140 0083446 226.6206 259.1745  1.00266844 36259
BEIDOU 10 (C10)         
1 37948U 11073A   21159.23215404 -.00000165  00000-0  00000-0 0  9995
2 37948  50.9807 293.7252 0072262 213.5966 286.0881  1.00255807 35002
BEIDOU 11 (C05)         
1 38091U 12008A   21159.95765464  .00000069  00000-0  00000-0 0  9991
2 38091   1.5361  67.7448 0008083 333.0993 260.1260  1.00270410 34081
BEIDOU 12 (C11)         
1 38250U 12018A   21158.30063012 -.00000092  00000-0  00000-0 0  9994
2 38250  56.7562   5.9471 0020097 249.1491  77.9186  1.86234311 62099
BEIDOU 13 (C12)         
1 38251U 12018B   21158.23284582 -.00000093  00000-0  00000-0 0  9995
2 38251  56.6782   5.2969 0010935 252.1004  73.9258  1.86234130 62097
BEIDOU 15 (C14)         
1 38775U 12050B   21159.27033889  .00000013  00000-0  00000-0 0  9990
2 38775  55.2057 124.2923 0016187 318.1316 180.8917  1.86232271 59498
BEIDOU 16 (C02)         
1 38953U 12059A   21159.96271433 -.00000162  00000-0  00000-0 0  9998
2 38953   1.9514  84.7027 0008094 294.7353 308.6165  1.00268164 31654
BEIDOU 17 (C31)         
1 40549U 15019A   21159.89356353 -.00000190  00000-0  00000-0 0  9999
2 40549  52.5103 317.0875 0037993 186.7507 171.5380  1.00267601 22682
BEIDOU 18 (C57)         
1 40748U 15037A   21159.27516676 -.00000092  00000-0  00000-0 0  9999
2 40748  55.9380   4.3562 0005114  29.3830 185.3615  1.86233357 39943
BEIDOU 19 (C58)         
1 40749U 15037B   21159.56685169 -.00000091  00000-0  00000-0 0  9995
2 40749  55.9420   4.3343 0004614 348.2711 198.1894  1.86232201 39949
BEIDOU 20 (C18)         
1 40938U 15053A   21159.68238795 -.00000160  00000-0  00000-0 0  9992
2 40938  52.0772 280.1618 0047107 191.1742 127.2954  1.00285672 20956
BEIDOU IGSO-6 (C13)     
1 41434U 16021A   21159.67799545 -.00000185  00000-0  00000-0 0  9991
2 41434  57.5499  56.7337 0038185 214.9773 326.3453  1.00271023 19086
BEIDOU-2 G7 (C03)       
1 41586U 16037A   21159.87070688 -.00000343  00000-0  00000+0 0  9993
2 41586   1.6828  66.9018 0009231  17.2347 237.3529  1.00273740 18385
BEIDOU-3 M1 (C19)       
1 43001U 17069A   21159.63345887  .00000012  00000-0  00000-0 0  9996
2 43001  55.3595 124.2308 0012345 291.3186 247.2327  1.86231756 24436
BEIDOU-3 M2 (C20)       
1 43002U 17069B   21159.53786580  .00000012  00000-0  00000-0 0  9995
2 43002  55.3592 124.2692 0010918 308.8662 209.0892  1.86231384 24426
BEIDOU-3 M3 (C27)       
1 43107U 18003A   21159.59534248 -.00000093  00000-0  00000-0 0  9998
2 43107  55.3805   5.4288 0005782  52.0806 310.2818  1.86232534 23195
BEIDOU-3 M4 (C28)       
1 43108U 18003B   21159.30034016 -.00000094  00000-0  00000-0 0  9997
2 43108  55.3759   5.4283 0001819 241.3443 328.4096  1.86232542 23183
BEIDOU-3 M5 (C21)       
1 43207U 18018A   21158.89766949  .00000015  00000-0  00000-0 0  9995
2 43207  55.3186 124.3822 0008155 324.3046  35.6004  1.86231651 22565
BEIDOU-3 M6 (C22)       
1 43208U 18018B   21158.96434465  .00000015  00000-0  00000-0 0  9999
2 43208  55.3184 124.3848 0010314 300.9442  58.9139  1.86231633 22569
BEIDOU-3 M7 (C29)       
1 43245U 18029A   21159.54276138 -.00000093  00000-0  00000+0 0  9994
2 43245  55.3099   3.2235 0001391  59.9825 177.3138  1.86232619 21728
BEIDOU-3 M8 (C30)       
1 43246U 18029B   21158.35501924 -.00000095  00000-0  10000-3 0  9994
2 43246  55.3116   3.2960 0004708   3.8616 203.2758  1.86232770 21696
BEIDOU IGSO-7 (C16)     
1 43539U 18057A   21159.46629209 -.00000035  00000-0  00000-0 0  9990
2 43539  55.0553 179.0352 0038867 223.0045 136.5738  1.00271740 10752
BEIDOU-3 M9 (C23)       
1 43581U 18062A   21159.40612278  .00000008  00000-0  00000-0 0  9994
2 43581  54.4048 244.9073 0003844 262.2258 139.7036  1.86231854 19460
BEIDOU-3 M10 (C24)      
1 43582U 18062B   21159.74743527  .00000012  00000-0  00000-0 0  9999
2 43582  54.4041 244.8852 0004023 351.0621  11.0335  1.86232015 19474
BEIDOU-3 M11 (C25)      
1 43602U 18067A   21159.67991464  .00000015  00000-0  00000-0 0  9997
2 43602  54.4804 243.4710 0006417 358.1832   0.8823  1.86231685 18955
BEIDOU-3 M12 (C26)      
1 43603U 18067B   21159.40568237  .00000012  00000-0  00000-0 0  9994
2 43603  54.4766 243.4460 0003765 344.6244 101.0455  1.86231624 18975
BEIDOU-3 M13 (C32)      
1 43622U 18072A   21159.64589964  .00000011  00000-0  00000-0 0  9996
2 43622  55.2833 123.9255 0008821 289.3511 347.4867  1.86231770 18485
BEIDOU-3 M14 (C33)      
1 43623U 18072B   21159.87460417  .00000010  00000-0  00000-0 0  9992
2 43623  55.2853 123.9094 0007033 308.3552 212.0527  1.86231734 18491
BEIDOU-3 M15 (C34)      
1 43647U 18078A   21157.62830248 -.00000097  00000-0  10000-3 0  9998
2 43647  55.2086   3.4798 0007111   5.1371 344.4596  1.86232753 17954
BEIDOU-3 M16 (C35)      
1 43648U 18078B   21159.39696334 -.00000093  00000-0  10000-3 0  9997
2 43648  55.2022   3.4242 0005220  21.2594 342.6167  1.86232092 18012
BEIDOU-3 G1 (C59)       
1 43683U 18085A   21159.90211267 -.00000264  00000-0  00000-0 0  9995
2 43683   1.0674 228.2664 0002757   9.4367 124.4809  1.00277292  9663
BEIDOU-3 M17 (C36)      
1 43706U 18093A   21159.54495663  .00000010  00000-0  00000-0 0  9992
2 43706  54.4842 244.7616 0010205 265.7033  94.2391  1.86232049 17374
BEIDOU-3 M18 (C37)      
1 43707U 18093B   21159.53362334  .00000010  00000-0  00000-0 0  9990
2 43707  54.4853 244.7518 0008042 291.7034 151.4835  1.86232066 17361
BEIDOU-3 IGSO-1 (C38)   
1 44204U 19023A   21158.53650887 -.00000238  00000-0  00000-0 0  9992
2 44204  56.0080  57.0251 0018427 192.6232 310.6863  1.00298385  7956
BEIDOU-2 G8             
1 44231U 19027A   21159.90307226 -.00000234  00000-0  00000-0 0  9990
2 44231   0.2763 345.9147 0005743 202.0879 179.1991  1.00272485  7681
BEIDOU-3 IGSO-2 (C39)   
1 44337U 19035A   21159.96751230 -.00000026  00000-0  00000-0 0  9999
2 44337  55.0901 175.0714 0020303 193.0487 344.8033  1.00283966  7308
BEIDOU-3 M23 (C45)      
1 44542U 19061A   21159.60851674  .00000011  00000-0  10000-3 0  9997
2 44542  54.7088 244.8265 0007519 325.7038 120.7627  1.86231226 11620
BEIDOU-3 M24 (C46)      
1 44543U 19061B   21158.54220848 -.00000003  00000-0  10000-3 0  9995
2 44543  54.7081 244.8333 0005163 306.5725  55.8234  1.86231772 11610
BEIDOU-3 IGSO-3         
1 44709U 19073A   21159.82372454 -.00000196  00000-0  00000-0 0  9994
2 44709  57.8597 300.2450 0019297 197.7685 162.9175  1.00278551  6064
BEIDOU-3 M21            
1 44793U 19078A   21159.11580249 -.00000094  00000-0  10000-3 0  9998
2 44793  55.0562   3.4954 0006925  13.4535 207.8928  1.86232269 10477
BEIDOU-3 M22            
1 44794U 19078B   21159.51673685 -.00000093  00000-0  00000-0 0  9995
2 44794  55.0308   3.4811 0004770  13.1616  27.9657  1.86232783 10483
BEIDOU-3 M19            
1 44864U 19090A   21159.42903147  .00000012  00000-0  00000-0 0  9996
2 44864  55.2188 124.1641 0018020 270.0077 266.9175  1.86231859 10066
BEIDOU-3 M20            
1 44865U 19090B   21159.81004122  .00000011  00000-0  00000-0 0  9994
2 44865  55.2204 124.1821 0016911 283.4448 238.8504  1.86231845 10051
BEIDOU-3 G2             
1 45344U 20017A   21159.96192920 -.00000130  00000-0  00000-0 0  9991
2 45344   2.4410 336.5208 0004107 121.1530 226.2509  1.00272788  4875
BEIDOU-3 G3             
1 45807U 20040A   21159.46559420 -.00000341  00000-0  00000-0 0  9992
2 45807   2.3022 298.6418 0004166 359.5922 236.9491  1.00275349  3687
